0 ONEWEB-0240
1 48785U 21045U   24002.69522543 -.00000127  00000-0 -37165-3 0  9995
2 48785  87.8991  77.6379 0002287 107.2061 252.9320 13.15550853126537
0 ONEWEB-0246
1 48786U 21045V   24002.76574369 -.00000102  00000-0 -30590-3 0  9995
2 48786  87.8993  77.6261 0002008 115.3101 244.8237 13.15549131126417
0 ONEWEB-0210
1 48787U 21045W   24002.74038945  .00005907  00000-0  15652-1 0  9995
2 48787  87.8991  77.6379 0002026 132.1090 228.0212 13.15520576126453
0 ONEWEB-0214
1 48788U 21045X   24003.13017638  .00000058  00000-0  12071-3 0  9992
2 48788  87.8991  77.5492 0001597 127.7653 232.3623 13.15547101127599
0 ONEWEB-0221
1 48789U 21045Y   24002.75623283 -.00000121  00000-0 -35428-3 0  9993
2 48789  87.8995  77.6370 0002086 110.8757 249.2597 13.15549198126518
0 ONEWEB-0213
1 48790U 21045Z   24003.12543058  .00000171  00000-0  41943-3 0  9990
2 48790  87.8994  77.5799 0002051 114.2324 245.9020 13.15548635127759
0 ONEWEB-0212
1 48791U 21045AA  24002.72216491  .00000177  00000-0  43706-3 0  9999
2 48791  87.8993  77.6400 0001792 100.8774 259.2558 13.15547932126561
0 ONEWEB-0227
1 48792U 21045AB  24002.72137988  .00000096  00000-0  22048-3 0  9999
2 48792  87.8992  77.6577 0001908 105.3527 254.7814 13.15548448126514
